{
"type": "FeatureCollection",
"name": "regions",
"features": [
{ "type": "Feature", "properties": { "numbers": 1, "abbrevs": "BI", "names": "British Isles" }, "geometry": { "type": "Polygon", "coordinates": [ [ [ -10.0, 59.0 ], [ 2.0, 59.0 ], [ 2.0, 50.0 ], [ -10.0, 50.0 ], [ -10.0, 59.0 ] ] ] } },
{ "type": "Feature", "properties": { "numbers": 2, "abbrevs": "IP", "names": "Iberian Peninsula" }, "geometry": { "type": "Polygon", "coordinates": [ [ [ -10.0, 44.0 ], [ 3.0, 44.0 ], [ 3.0, 36.0 ], [ -10.0, 36.0 ], [ -10.0, 44.0 ] ] ] } },
{ "type": "Feature", "properties": { "numbers": 3, "abbrevs": "FR", "names": "France" }, "geometry": { "type": "Polygon", "coordinates": [ [ [ -5.0, 50.0 ], [ 5.0, 50.0 ], [ 5.0, 44.0 ], [ -5.0, 44.0 ], [ -5.0, 50.0 ] ] ] } },
{ "type": "Feature", "properties": { "numbers": 4, "abbrevs": "ME", "names": "Mid-Europe" }, "geometry": { "type": "Polygon", "coordinates": [ [ [ 2.0, 55.0 ], [ 16.0, 55.0 ], [ 16.0, 48.0 ], [ 2.0, 48.0 ], [ 2.0, 55.0 ] ] ] } },
{ "type": "Feature", "properties": { "numbers": 5, "abbrevs": "SC", "names": "Scandinavia" }, "geometry": { "type": "Polygon", "coordinates": [ [ [ 5.0, 70.0 ], [ 30.0, 70.0 ], [ 30.0, 55.0 ], [ 5.0, 55.0 ], [ 5.0, 70.0 ] ] ] } },
{ "type": "Feature", "properties": { "numbers": 6, "abbrevs": "AL", "names": "Alps" }, "geometry": { "type": "Polygon", "coordinates": [ [ [ 5.0, 48.0 ], [ 15.0, 48.0 ], [ 15.0, 44.0 ], [ 5.0, 44.0 ], [ 5.0, 48.0 ] ] ] } },
{ "type": "Feature", "properties": { "numbers": 7, "abbrevs": "MD", "names": "Mediterranean" }, "geometry": { "type": "Polygon", "coordinates": [ [ [ 3.0, 44.0 ], [ 25.0, 44.0 ], [ 25.0, 36.0 ], [ 3.0, 36.0 ], [ 3.0, 44.0 ] ] ] } },
{ "type": "Feature", "properties": { "numbers": 8, "abbrevs": "EA", "names": "Eastern Europe" }, "geometry": { "type": "Polygon", "coordinates": [ [ [ 16.0, 55.0 ], [ 30.0, 55.0 ], [ 30.0, 44.0 ], [ 16.0, 44.0 ], [ 16.0, 55.0 ] ] ] } }
]
}
